STARLINK-37059          
1 68088U 26042V   26083.98108382  .00157655  00000+0  78626-3 0  9992
2 68088  53.1572 117.9754 0000681  89.5103 270.5997 15.80915285  4502
STARLINK-37004          
1 68089U 26042W   26083.98033329  .00154750  00000+0  77277-3 0  9995
2 68089  53.1573 117.9705 0000403 103.6874 256.4193 15.80896108  4508
STARLINK-36320          
1 68090U 26042X   26083.93323702  .00102417  00000+0  66376-3 0  9990
2 68090  53.1588 118.3928 0001213 118.9332 241.1810 15.75254621  4493
STARLINK-36324          
1 68091U 26042Y   26083.93811554  .00159939  00000+0  10259-2 0  9997
2 68091  53.1587 118.4258 0001490 144.6180 215.4939 15.75283803  4494
STARLINK-36896          
1 68092U 26042Z   26083.91667824 -.00052809  00000+0 -34223-3 0  9993
2 68092  53.1593 118.4226 0001154  94.1160 197.7107 15.75255036  4509
STARLINK-36251          
1 68093U 26042AA  26083.91336252  .00370756  00000+0  17907-2 0  9993
2 68093  53.1574 118.2613 0001595 154.2475 205.8627 15.81015801  4489
STARLINK-36787          
1 68094U 26042AB  26083.93357519  .00164967  00000+0  10573-2 0  9992
2 68094  53.1591 118.3949 0000746  82.7372 277.3734 15.75286543  4489
STARLINK-36790          
1 68095U 26042AC  26083.91667824 -.01383550  00000+0 -96803-2 0  9998
2 68095  53.1592 118.2687 0000739 106.5819 259.9972 15.76313748  4492
STARLINK-36328          
1 68096U 26042AD  26083.91111335  .00368917  00000+0  17829-2 0  9998
2 68096  53.1575 118.2459 0000774  96.4461 263.6650 15.81006446  4484
STARLINK-36853          
1 68097U 26042AE  26083.91261460  .00371934  00000+0  17968-2 0  9991
2 68097  53.1577 118.2563 0000884 118.7663 241.3449 15.81007180  4482
GLOBAL-34               
1 68098U 26043A   26083.99476871  .00010908  00000+0  35562-3 0  9997
2 68098  42.0224 347.1447 0004435  25.8383 334.2675 15.31762645  2914
STARLINK-37022          
1 68101U 26044A   26083.91667824  .00001064  00000+0  80022-5 0  9991
2 68101  97.2837  44.8029 0001680  89.9683  18.7071 15.75185163  3840
