CCSDS_OMM_VERS = 2.0
CREATION_DATE  = 
ORIGINATOR     = 

OBJECT_NAME    = STARLINK-37059
OBJECT_ID      = 2026-042V
CENTER_NAME    = EARTH
REF_FRAME      = TEME
TIME_SYSTEM    = UTC
MEAN_ELEMENT_THEORY = SGP/SGP4

EPOCH          = 2026-03-24T23:32:45.642048
MEAN_MOTION    = 15.80915285
ECCENTRICITY   = .00006811
INCLINATION    = 53.1572
RA_OF_ASC_NODE = 117.9754
ARG_OF_PERICENTER = 89.5103
MEAN_ANOMALY   = 270.5997

EPHEMERIS_TYPE = 0
CLASSIFICATION_TYPE = U
NORAD_CAT_ID   = 68088
ELEMENT_SET_NO = 999
REV_AT_EPOCH   = 450
BSTAR          = .78625796E-3
MEAN_MOTION_DOT = .157655E-2
MEAN_MOTION_DDOT = 0

CCSDS_OMM_VERS = 2.0
CREATION_DATE  = 
ORIGINATOR     = 

OBJECT_NAME    = STARLINK-37004
OBJECT_ID      = 2026-042W
CENTER_NAME    = EARTH
REF_FRAME      = TEME
TIME_SYSTEM    = UTC
MEAN_ELEMENT_THEORY = SGP/SGP4

EPOCH          = 2026-03-24T23:31:40.796256
MEAN_MOTION    = 15.80896108
ECCENTRICITY   = .00004033
INCLINATION    = 53.1573
RA_OF_ASC_NODE = 117.9705
ARG_OF_PERICENTER = 103.6874
MEAN_ANOMALY   = 256.4193

EPHEMERIS_TYPE = 0
CLASSIFICATION_TYPE = U
NORAD_CAT_ID   = 68089
ELEMENT_SET_NO = 999
REV_AT_EPOCH   = 450
BSTAR          = .77276954E-3
MEAN_MOTION_DOT = .15475E-2
MEAN_MOTION_DDOT = 0

CCSDS_OMM_VERS = 2.0
CREATION_DATE  = 
ORIGINATOR     = 

OBJECT_NAME    = STARLINK-36320
OBJECT_ID      = 2026-042X
CENTER_NAME    = EARTH
REF_FRAME      = TEME
TIME_SYSTEM    = UTC
MEAN_ELEMENT_THEORY = SGP/SGP4

EPOCH          = 2026-03-24T22:23:51.678528
MEAN_MOTION    = 15.75254621
ECCENTRICITY   = .00012132
INCLINATION    = 53.1588
RA_OF_ASC_NODE = 118.3928
ARG_OF_PERICENTER = 118.9332
MEAN_ANOMALY   = 241.1810

EPHEMERIS_TYPE = 0
CLASSIFICATION_TYPE = U
NORAD_CAT_ID   = 68090
ELEMENT_SET_NO = 999
REV_AT_EPOCH   = 449
BSTAR          = .66376411E-3
MEAN_MOTION_DOT = .102417E-2
MEAN_MOTION_DDOT = 0

CCSDS_OMM_VERS = 2.0
CREATION_DATE  = 
ORIGINATOR     = 

OBJECT_NAME    = STARLINK-36324
OBJECT_ID      = 2026-042Y
CENTER_NAME    = EARTH
REF_FRAME      = TEME
TIME_SYSTEM    = UTC
MEAN_ELEMENT_THEORY = SGP/SGP4

EPOCH          = 2026-03-24T22:30:53.182656
MEAN_MOTION    = 15.75283803
ECCENTRICITY   = .00014901
INCLINATION    = 53.1587
RA_OF_ASC_NODE = 118.4258
ARG_OF_PERICENTER = 144.6180
MEAN_ANOMALY   = 215.4939

EPHEMERIS_TYPE = 0
CLASSIFICATION_TYPE = U
NORAD_CAT_ID   = 68091
ELEMENT_SET_NO = 999
REV_AT_EPOCH   = 449
BSTAR          = .10258984E-2
MEAN_MOTION_DOT = .159939E-2
MEAN_MOTION_DDOT = 0

CCSDS_OMM_VERS = 2.0
CREATION_DATE  = 
ORIGINATOR     = 

OBJECT_NAME    = STARLINK-36896
OBJECT_ID      = 2026-042Z
CENTER_NAME    = EARTH
REF_FRAME      = TEME
TIME_SYSTEM    = UTC
MEAN_ELEMENT_THEORY = SGP/SGP4

EPOCH          = 2026-03-24T22:00:00.999936
MEAN_MOTION    = 15.75255036
ECCENTRICITY   = .00011542
INCLINATION    = 53.1593
RA_OF_ASC_NODE = 118.4226
ARG_OF_PERICENTER = 94.1160
MEAN_ANOMALY   = 197.7107

EPHEMERIS_TYPE = 0
CLASSIFICATION_TYPE = U
NORAD_CAT_ID   = 68092
ELEMENT_SET_NO = 999
REV_AT_EPOCH   = 450
BSTAR          = -.34223039E-3
MEAN_MOTION_DOT = -.52809E-3
MEAN_MOTION_DDOT = 0

CCSDS_OMM_VERS = 2.0
CREATION_DATE  = 
ORIGINATOR     = 

OBJECT_NAME    = STARLINK-36251
OBJECT_ID      = 2026-042AA
CENTER_NAME    = EARTH
REF_FRAME      = TEME
TIME_SYSTEM    = UTC
MEAN_ELEMENT_THEORY = SGP/SGP4

EPOCH          = 2026-03-24T21:55:14.521728
MEAN_MOTION    = 15.81015801
ECCENTRICITY   = .00015959
INCLINATION    = 53.1574
RA_OF_ASC_NODE = 118.2613
ARG_OF_PERICENTER = 154.2475
MEAN_ANOMALY   = 205.8627

EPHEMERIS_TYPE = 0
CLASSIFICATION_TYPE = U
NORAD_CAT_ID   = 68093
ELEMENT_SET_NO = 999
REV_AT_EPOCH   = 448
BSTAR          = .1790697E-2
MEAN_MOTION_DOT = .370756E-2
MEAN_MOTION_DDOT = 0

CCSDS_OMM_VERS = 2.0
CREATION_DATE  = 
ORIGINATOR     = 

OBJECT_NAME    = STARLINK-36787
OBJECT_ID      = 2026-042AB
CENTER_NAME    = EARTH
REF_FRAME      = TEME
TIME_SYSTEM    = UTC
MEAN_ELEMENT_THEORY = SGP/SGP4

EPOCH          = 2026-03-24T22:24:20.896416
MEAN_MOTION    = 15.75286543
ECCENTRICITY   = .00007464
INCLINATION    = 53.1591
RA_OF_ASC_NODE = 118.3949
ARG_OF_PERICENTER = 82.7372
MEAN_ANOMALY   = 277.3734

EPHEMERIS_TYPE = 0
CLASSIFICATION_TYPE = U
NORAD_CAT_ID   = 68094
ELEMENT_SET_NO = 999
REV_AT_EPOCH   = 448
BSTAR          = .10572702E-2
MEAN_MOTION_DOT = .164967E-2
MEAN_MOTION_DDOT = 0

CCSDS_OMM_VERS = 2.0
CREATION_DATE  = 
ORIGINATOR     = 

OBJECT_NAME    = STARLINK-36790
OBJECT_ID      = 2026-042AC
CENTER_NAME    = EARTH
REF_FRAME      = TEME
TIME_SYSTEM    = UTC
MEAN_ELEMENT_THEORY = SGP/SGP4

EPOCH          = 2026-03-24T22:00:00.999936
MEAN_MOTION    = 15.76313748
ECCENTRICITY   = .00007398
INCLINATION    = 53.1592
RA_OF_ASC_NODE = 118.2687
ARG_OF_PERICENTER = 106.5819
MEAN_ANOMALY   = 259.9972

EPHEMERIS_TYPE = 0
CLASSIFICATION_TYPE = U
NORAD_CAT_ID   = 68095
ELEMENT_SET_NO = 999
REV_AT_EPOCH   = 449
BSTAR          = -.96802553E-2
MEAN_MOTION_DOT = -.138355E-1
MEAN_MOTION_DDOT = 0

CCSDS_OMM_VERS = 2.0
CREATION_DATE  = 
ORIGINATOR     = 

OBJECT_NAME    = STARLINK-36328
OBJECT_ID      = 2026-042AD
CENTER_NAME    = EARTH
REF_FRAME      = TEME
TIME_SYSTEM    = UTC
MEAN_ELEMENT_THEORY = SGP/SGP4

EPOCH          = 2026-03-24T21:52:00.193440
MEAN_MOTION    = 15.81006446
ECCENTRICITY   = .00007748
INCLINATION    = 53.1575
RA_OF_ASC_NODE = 118.2459
ARG_OF_PERICENTER = 96.4461
MEAN_ANOMALY   = 263.6650

EPHEMERIS_TYPE = 0
CLASSIFICATION_TYPE = U
NORAD_CAT_ID   = 68096
ELEMENT_SET_NO = 999
REV_AT_EPOCH   = 448
BSTAR          = .17828998E-2
MEAN_MOTION_DOT = .368917E-2
MEAN_MOTION_DDOT = 0

CCSDS_OMM_VERS = 2.0
CREATION_DATE  = 
ORIGINATOR     = 

OBJECT_NAME    = STARLINK-36853
OBJECT_ID      = 2026-042AE
CENTER_NAME    = EARTH
REF_FRAME      = TEME
TIME_SYSTEM    = UTC
MEAN_ELEMENT_THEORY = SGP/SGP4

EPOCH          = 2026-03-24T21:54:09.901440
MEAN_MOTION    = 15.81007180
ECCENTRICITY   = .00008849
INCLINATION    = 53.1577
RA_OF_ASC_NODE = 118.2563
ARG_OF_PERICENTER = 118.7663
MEAN_ANOMALY   = 241.3449

EPHEMERIS_TYPE = 0
CLASSIFICATION_TYPE = U
NORAD_CAT_ID   = 68097
ELEMENT_SET_NO = 999
REV_AT_EPOCH   = 448
BSTAR          = .17967695E-2
MEAN_MOTION_DOT = .371934E-2
MEAN_MOTION_DDOT = 0

CCSDS_OMM_VERS = 2.0
CREATION_DATE  = 
ORIGINATOR     = 

OBJECT_NAME    = GLOBAL-34
OBJECT_ID      = 2026-043A
CENTER_NAME    = EARTH
REF_FRAME      = TEME
TIME_SYSTEM    = UTC
MEAN_ELEMENT_THEORY = SGP/SGP4

EPOCH          = 2026-03-24T23:52:28.016544
MEAN_MOTION    = 15.31762645
ECCENTRICITY   = .00044356
INCLINATION    = 42.0224
RA_OF_ASC_NODE = 347.1447
ARG_OF_PERICENTER = 25.8383
MEAN_ANOMALY   = 334.2675

EPHEMERIS_TYPE = 0
CLASSIFICATION_TYPE = U
NORAD_CAT_ID   = 68098
ELEMENT_SET_NO = 999
REV_AT_EPOCH   = 291
BSTAR          = .35562169E-3
MEAN_MOTION_DOT = .10908E-3
MEAN_MOTION_DDOT = 0

CCSDS_OMM_VERS = 2.0
CREATION_DATE  = 
ORIGINATOR     = 

OBJECT_NAME    = STARLINK-37022
OBJECT_ID      = 2026-044A
CENTER_NAME    = EARTH
REF_FRAME      = TEME
TIME_SYSTEM    = UTC
MEAN_ELEMENT_THEORY = SGP/SGP4

EPOCH          = 2026-03-24T22:00:00.999936
MEAN_MOTION    = 15.75185163
ECCENTRICITY   = .00016802
INCLINATION    = 97.2837
RA_OF_ASC_NODE = 44.8029
ARG_OF_PERICENTER = 89.9683
MEAN_ANOMALY   = 18.7071

EPHEMERIS_TYPE = 0
CLASSIFICATION_TYPE = U
NORAD_CAT_ID   = 68101
ELEMENT_SET_NO = 999
REV_AT_EPOCH   = 384
BSTAR          = .8002183E-5
MEAN_MOTION_DOT = .1064E-4
MEAN_MOTION_DDOT = 0

